[
    {
        "Altitude(m)": 706985.5078708654,
        "Argument of Periapsis(deg)": 0.006834072711976239,
        "Eccentricity": 0.0,
        "Inclination(deg)": 45.0,
        "Latitude(deg)": -16.378051136647642,
        "Longitude(deg)": -68.45517217942277,
        "Mean Anomaly(deg)": -156.71647001151152,
        "RAAN(deg)": 194.9935488351251,
        "Satellite Name": "Constellation 1 870",
        "Satellite Number": 870,
        "Semi-Major Axis(m)": 7083131.272910544,
        "Time(s)": 114
    },
    {
        "Altitude(m)": 706997.7358929209,
        "Argument of Periapsis(deg)": 0.006894020718221645,
        "Eccentricity": 0.0,
        "Inclination(deg)": 45.0,
        "Latitude(deg)": -16.419308262424973,
        "Longitude(deg)": -68.41277477018002,
        "Mean Anomaly(deg)": -156.65576887126164,
        "RAAN(deg)": 194.99349224595954,
        "Satellite Name": "Constellation 1 870",
        "Satellite Number": 870,
        "Semi-Major Axis(m)": 7083131.272910544,
        "Time(s)": 115
    },
    {
        "Altitude(m)": 707009.9755932009,
        "Argument of Periapsis(deg)": 0.006953968724467052,
        "Eccentricity": 0.0,
        "Inclination(deg)": 45.0,
        "Latitude(deg)": -16.46055483205387,
        "Longitude(deg)": -68.37035786398283,
        "Mean Anomaly(deg)": -156.5950677310117,
        "RAAN(deg)": 194.99343565679393,
        "Satellite Name": "Constellation 1 870",
        "Satellite Number": 870,
        "Semi-Major Axis(m)": 7083131.272910544,
        "Time(s)": 116
    },
    {
        "Altitude(m)": 707022.2269337814,
        "Argument of Periapsis(deg)": 0.007013916730712457,
        "Eccentricity": 0.0,
        "Inclination(deg)": 45.0,
        "Latitude(deg)": -16.501790813637687,
        "Longitude(deg)": -68.3279214055933,
        "Mean Anomaly(deg)": -156.5343665907618,
        "RAAN(deg)": 194.99337906762838,
        "Satellite Name": "Constellation 1 870",
        "Satellite Number": 870,
        "Semi-Major Axis(m)": 7083131.272910544,
        "Time(s)": 117
    },
    {
        "Altitude(m)": 707034.4898766985,
        "Argument of Periapsis(deg)": 0.007073864736957864,
        "Eccentricity": 0.0,
        "Inclination(deg)": 45.0,
        "Latitude(deg)": -16.54301617524193,
        "Longitude(deg)": -68.2854653397433,
        "Mean Anomaly(deg)": -156.47366545051193,
        "RAAN(deg)": 194.99332247846283,
        "Satellite Name": "Constellation 1 870",
        "Satellite Number": 870,
        "Semi-Major Axis(m)": 7083131.272910544,
        "Time(s)": 118
    },
    {
        "Altitude(m)": 707046.7643839166,
        "Argument of Periapsis(deg)": 0.0071338127432032696,
        "Eccentricity": 0.0,
        "Inclination(deg)": 45.0,
        "Latitude(deg)": -16.58423088489421,
        "Longitude(deg)": -68.24298977923159,
        "Mean Anomaly(deg)": -156.412964310262,
        "RAAN(deg)": 194.99326588929725,
        "Satellite Name": "Constellation 1 870",
        "Satellite Number": 870,
        "Semi-Major Axis(m)": 7083131.272910544,
        "Time(s)": 119
    },
    {
        "Altitude(m)": 707059.050417348,
        "Argument of Periapsis(deg)": 0.007193760749448674,
        "Eccentricity": 0.0,
        "Inclination(deg)": 45.0,
        "Latitude(deg)": -16.625434910583714,
        "Longitude(deg)": -68.20049433253538,
        "Mean Anomaly(deg)": -156.35226317001215,
        "RAAN(deg)": 194.9932093001317,
        "Satellite Name": "Constellation 1 870",
        "Satellite Number": 870,
        "Semi-Major Axis(m)": 7083131.272910544,
        "Time(s)": 120
    },
    {
        "Altitude(m)": 707071.3479388404,
        "Argument of Periapsis(deg)": 0.007253708755694079,
        "Eccentricity": 0.0,
        "Inclination(deg)": 45.0,
        "Latitude(deg)": -16.666628220261753,
        "Longitude(deg)": -68.15797911239298,
        "Mean Anomaly(deg)": -156.2915620297622,
        "RAAN(deg)": 194.9931527109661,
        "Satellite Name": "Constellation 1 870",
        "Satellite Number": 870,
        "Semi-Major Axis(m)": 7083131.272910544,
        "Time(s)": 121
    },
    {
        "Altitude(m)": 707083.6569101845,
        "Argument of Periapsis(deg)": 0.0073136567619394854,
        "Eccentricity": 0.0,
        "Inclination(deg)": 45.0,
        "Latitude(deg)": -16.707810781841058,
        "Longitude(deg)": -68.1154440634154,
        "Mean Anomaly(deg)": -156.23086088951231,
        "RAAN(deg)": 194.99309612180053,
        "Satellite Name": "Constellation 1 870",
        "Satellite Number": 870,
        "Semi-Major Axis(m)": 7083131.272910544,
        "Time(s)": 122
    },
    {
        "Altitude(m)": 707095.9772931113,
        "Argument of Periapsis(deg)": 0.0073736047681848904,
        "Eccentricity": 0.0,
        "Inclination(deg)": 45.0,
        "Latitude(deg)": -16.74898256319601,
        "Longitude(deg)": -68.07288913018346,
        "Mean Anomaly(deg)": -156.1701597492624,
        "RAAN(deg)": 194.99303953263495,
        "Satellite Name": "Constellation 1 870",
        "Satellite Number": 870,
        "Semi-Major Axis(m)": 7083131.272910544,
        "Time(s)": 123
    },
    {
        "Altitude(m)": 707108.3090492954,
        "Argument of Periapsis(deg)": 0.007433552774430298,
        "Eccentricity": 0.0,
        "Inclination(deg)": 45.0,
        "Latitude(deg)": -16.790143532162407,
        "Longitude(deg)": -68.03031425724761,
        "Mean Anomaly(deg)": -156.10945860901253,
        "RAAN(deg)": 194.9929829434694,
        "Satellite Name": "Constellation 1 870",
        "Satellite Number": 870,
        "Semi-Major Axis(m)": 7083131.272910544,
        "Time(s)": 124
    },
    {
        "Altitude(m)": 707120.6521403498,
        "Argument of Periapsis(deg)": 0.007493500780675703,
        "Eccentricity": 0.0,
        "Inclination(deg)": 45.0,
        "Latitude(deg)": -16.83129365653741,
        "Longitude(deg)": -67.98771938912813,
        "Mean Anomaly(deg)": -156.04875746876263,
        "RAAN(deg)": 194.9929263543038,
        "Satellite Name": "Constellation 1 870",
        "Satellite Number": 870,
        "Semi-Major Axis(m)": 7083131.272910544,
        "Time(s)": 125
    },
    {
        "Altitude(m)": 707133.0065278282,
        "Argument of Periapsis(deg)": 0.007553448786921108,
        "Eccentricity": 0.0,
        "Inclination(deg)": 45.0,
        "Latitude(deg)": -16.872432904079325,
        "Longitude(deg)": -67.94510463841245,
        "Mean Anomaly(deg)": -155.98805632851276,
        "RAAN(deg)": 194.99286976513824,
        "Satellite Name": "Constellation 1 870",
        "Satellite Number": 870,
        "Semi-Major Axis(m)": 7083131.272910544,
        "Time(s)": 126
    },
    {
        "Altitude(m)": 707145.3721732233,
        "Argument of Periapsis(deg)": 0.007613396793166514,
        "Eccentricity": 0.0,
        "Inclination(deg)": 45.0,
        "Latitude(deg)": -16.913561242507587,
        "Longitude(deg)": -67.90246961336591,
        "Mean Anomaly(deg)": -155.92735518826282,
        "RAAN(deg)": 194.99281317597269,
        "Satellite Name": "Constellation 1 870",
        "Satellite Number": 870,
        "Semi-Major Axis(m)": 7083131.272910544,
        "Time(s)": 127
    },
    {
        "Altitude(m)": 707157.7490379772,
        "Argument of Periapsis(deg)": 0.007673344799411918,
        "Eccentricity": 0.0,
        "Inclination(deg)": 45.0,
        "Latitude(deg)": -16.95467863950246,
        "Longitude(deg)": -67.85981442651554,
        "Mean Anomaly(deg)": -155.86665404801298,
        "RAAN(deg)": 194.9927565868071,
        "Satellite Name": "Constellation 1 870",
        "Satellite Number": 870,
        "Semi-Major Axis(m)": 7083131.272910544,
        "Time(s)": 128
    },
    {
        "Altitude(m)": 707170.1370834702,
        "Argument of Periapsis(deg)": 0.007733292805657325,
        "Eccentricity": 0.0,
        "Inclination(deg)": 45.0,
        "Latitude(deg)": -16.995785062705412,
        "Longitude(deg)": -67.81713902226055,
        "Mean Anomaly(deg)": -155.80595290776301,
        "RAAN(deg)": 194.99269999764155,
        "Satellite Name": "Constellation 1 870",
        "Satellite Number": 870,
        "Semi-Major Axis(m)": 7083131.272910544,
        "Time(s)": 129
    },
    {
        "Altitude(m)": 707182.5362710204,
        "Argument of Periapsis(deg)": 0.00779324081190273,
        "Eccentricity": 0.0,
        "Inclination(deg)": 45.0,
        "Latitude(deg)": -17.036880479718416,
        "Longitude(deg)": -67.77444334497022,
        "Mean Anomaly(deg)": -155.74525176751314,
        "RAAN(deg)": 194.99264340847594,
        "Satellite Name": "Constellation 1 870",
        "Satellite Number": 870,
        "Semi-Major Axis(m)": 7083131.272910544,
        "Time(s)": 130
    },
    {
        "Altitude(m)": 707194.9465618941,
        "Argument of Periapsis(deg)": 0.007853188818148135,
        "Eccentricity": 0.0,
        "Inclination(deg)": 45.0,
        "Latitude(deg)": -17.077964858104227,
        "Longitude(deg)": -67.73172733898357,
        "Mean Anomaly(deg)": -155.68455062726323,
        "RAAN(deg)": 194.9925868193104,
        "Satellite Name": "Constellation 1 870",
        "Satellite Number": 870,
        "Semi-Major Axis(m)": 7083131.272910544,
        "Time(s)": 131
    },
    {
        "Altitude(m)": 707207.3679172962,
        "Argument of Periapsis(deg)": 0.007913136824393542,
        "Eccentricity": 0.0,
        "Inclination(deg)": 45.0,
        "Latitude(deg)": -17.11903816538601,
        "Longitude(deg)": -67.68899094860942,
        "Mean Anomaly(deg)": -155.62384948701333,
        "RAAN(deg)": 194.9925302301448,
        "Satellite Name": "Constellation 1 870",
        "Satellite Number": 870,
        "Semi-Major Axis(m)": 7083131.272910544,
        "Time(s)": 132
    }
]